{"type": "FeatureCollection", "features": [ {"type": "Feature", "properties": {"norad_id": 58654, "name": "BEIDOU-3 M28 (C50)", "group": "beidou", "lat": -55.317066399345904, "lon": -13.086405576171224, "alt_km": 21526.70163773677, "timestamp": "2025-12-19T06:59:44.174046+00:00", "meta": {"OBJECT_NAME": "BEIDOU-3 M28 (C50)", "OBJECT_ID": "2023-207A", "EPOCH": "2025-12-18T08:16:11.764704", "MEAN_MOTION": 1.86229821, "ECCENTRICITY": 0.00026501, "INCLINATION": 55.5892, "RA_OF_ASC_NODE": 68.4116, "ARG_OF_PERICENTER": 272.4264, "MEAN_ANOMALY": 87.5728, "EPHEMERIS_TYPE": 0, "CLASSIFICATION_TYPE": "U", "NORAD_CAT_ID": 58654, "ELEMENT_SET_NO": 999, "REV_AT_EPOCH": 1347, "BSTAR": 0, "MEAN_MOTION_DOT": -6.6e-07, "MEAN_MOTION_DDOT": 0}, "tle": {"line1": "1 58654U 23207A   25352.34458061 -.00000066  00000+0  00000+0 0  9991", "line2": "2 58654  55.5892  68.4116 0002650 272.4264  87.5728  1.86229821 13471"}}, "geometry": {"type": "Point", "coordinates": [-13.086405576171224, -55.317066399345904]}}, {"type": "Feature", "properties": {"norad_id": 58655, "name": "BEIDOU-3 M26 (C48)", "group": "beidou", "lat": 39.57677542671288, "lon": 102.82796183507759, "alt_km": 21533.171826243004, "timestamp": "2025-12-19T06:59:44.174057+00:00", "meta": {"OBJECT_NAME": "BEIDOU-3 M26 (C48)", "OBJECT_ID": "2023-207B", "EPOCH": "2025-12-17T14:31:30.894816", "MEAN_MOTION": 1.86231346, "ECCENTRICITY": 0.0004016, "INCLINATION": 55.5906, "RA_OF_ASC_NODE": 68.4229, "ARG_OF_PERICENTER": 258.0544, "MEAN_ANOMALY": 101.9267, "EPHEMERIS_TYPE": 0, "CLASSIFICATION_TYPE": "U", "NORAD_CAT_ID": 58655, "ELEMENT_SET_NO": 999, "REV_AT_EPOCH": 1344, "BSTAR": 0, "MEAN_MOTION_DOT": -7.2e-07, "MEAN_MOTION_DDOT": 0}, "tle": {"line1": "1 58655U 23207B   25351.60521869 -.00000072  00000+0  00000+0 0  9994", "line2": "2 58655  55.5906  68.4229 0004016 258.0544 101.9267  1.86231346 13443"}}, "geometry": {"type": "Point", "coordinates": [102.82796183507759, 39.57677542671288]}}, {"type": "Feature", "properties": {"norad_id": 61186, "name": "BEIDOU-3 M25 (C47)", "group": "beidou", "lat": 10.219369959284156, "lon": 121.11974038237935, "alt_km": 21537.157798730936, "timestamp": "2025-12-19T06:59:44.174068+00:00", "meta": {"OBJECT_NAME": "BEIDOU-3 M25 (C47)", "OBJECT_ID": "2024-168B", "EPOCH": "2025-12-18T00:39:01.420992", "MEAN_MOTION": 1.86230296, "ECCENTRICITY": 0.00054425, "INCLINATION": 54.6373, "RA_OF_ASC_NODE": 308.537, "ARG_OF_PERICENTER": 299.044, "MEAN_ANOMALY": 100.6746, "EPHEMERIS_TYPE": 0, "CLASSIFICATION_TYPE": "U", "NORAD_CAT_ID": 61186, "ELEMENT_SET_NO": 999, "REV_AT_EPOCH": 841, "BSTAR": 0, "MEAN_MOTION_DOT": -8.7e-07, "MEAN_MOTION_DDOT": 0}, "tle": {"line1": "1 61186U 24168B   25352.02709978 -.00000087  00000+0  00000+0 0  9996", "line2": "2 61186  54.6373 308.5370 0005442 299.0440 100.6746  1.86230296  8415"}}, "geometry": {"type": "Point", "coordinates": [121.11974038237935, 10.219369959284156]}}, {"type": "Feature", "properties": {"norad_id": 61187, "name": "BEIDOU-3 M27 (C49)", "group": "beidou", "lat": -43.53251148922243, "lon": -93.94063160189896, "alt_km": 21527.559186684397, "timestamp": "2025-12-19T06:59:44.174079+00:00", "meta": {"OBJECT_NAME": "BEIDOU-3 M27 (C49)", "OBJECT_ID": "2024-168C", "EPOCH": "2025-12-18T11:15:38.296800", "MEAN_MOTION": 1.86230443, "ECCENTRICITY": 0.00025049, "INCLINATION": 54.6324, "RA_OF_ASC_NODE": 308.5054, "ARG_OF_PERICENTER": 339.4033, "MEAN_ANOMALY": 131.6614, "EPHEMERIS_TYPE": 0, "CLASSIFICATION_TYPE": "U", "NORAD_CAT_ID": 61187, "ELEMENT_SET_NO": 999, "REV_AT_EPOCH": 589, "BSTAR": 0, "MEAN_MOTION_DOT": -8.4e-07, "MEAN_MOTION_DDOT": 0}, "tle": {"line1": "1 61187U 24168C   25352.46919325 -.00000084  00000+0  00000+0 0  9991", "line2": "2 61187  54.6324 308.5054 0002504 339.4033 131.6614  1.86230443  5895"}}, "geometry": {"type": "Point", "coordinates": [-93.94063160189896, -43.53251148922243]}}]}